{
    "links": {
        "self": "http://www.neowsapp.com/rest/v1/neo/3351219?api_key=iIulBulltgU6a56xZRHN4H3l9WmuAYTsLGpBGhQ2"
    },
    "id": "3351219",
    "neo_reference_id": "3351219",
    "name": "(2006 UL)",
    "designation": "2006 UL",
    "nasa_jpl_url": "http://ssd.jpl.nasa.gov/sbdb.cgi?sstr=3351219",
    "absolute_magnitude_h": 26.1,
    "estimated_diameter": {
        "kilometers": {
            "estimated_diameter_min": 0.0160160338,
            "estimated_diameter_max": 0.0358129403
        },
        "meters": {
            "estimated_diameter_min": 16.0160337979,
            "estimated_diameter_max": 35.8129403019
        },
        "miles": {
            "estimated_diameter_min": 0.0099518989,
            "estimated_diameter_max": 0.0222531225
        },
        "feet": {
            "estimated_diameter_min": 52.5460443254,
            "estimated_diameter_max": 117.4965270602
        }
    },
    "is_potentially_hazardous_asteroid": false,
    "close_approach_data": [
        {
            "close_approach_date": "1991-11-13",
            "close_approach_date_full": "1991-Nov-13 20:54",
            "epoch_date_close_approach": 690065640000,
            "relative_velocity": {
                "kilometers_per_second": "15.0796704305",
                "kilometers_per_hour": "54286.8135497402",
                "miles_per_hour": "33731.7147859483"
            },
            "miss_distance": {
                "astronomical": "0.3799817576",
                "lunar": "147.8129037064",
                "kilometers": "56844461.575816312",
                "miles": "35321510.5430046256"
            },
            "orbiting_body": "Earth"
        },
        {
            "close_approach_date": "1996-11-04",
            "close_approach_date_full": "1996-Nov-04 16:34",
            "epoch_date_close_approach": 847125240000,
            "relative_velocity": {
                "kilometers_per_second": "10.9218337688",
                "kilometers_per_hour": "39318.601567747",
                "miles_per_hour": "24431.0499574703"
            },
            "miss_distance": {
                "astronomical": "0.2351522091",
                "lunar": "91.4742093399",
                "kilometers": "35178269.607154617",
                "miles": "21858763.1295710346"
            },
            "orbiting_body": "Earth"
        },
        {
            "close_approach_date": "2001-10-25",
            "close_approach_date_full": "2001-Oct-25 19:40",
            "epoch_date_close_approach": 1004038800000,
            "relative_velocity": {
                "kilometers_per_second": "7.3854912933",
                "kilometers_per_hour": "26587.7686557153",
                "miles_per_hour": "16520.6054738804"
            },
            "miss_distance": {
                "astronomical": "0.1055518132",
                "lunar": "41.0596553348",
                "kilometers": "15790326.429357884",
                "miles": "9811653.8707674392"
            },
            "orbiting_body": "Earth"
        },
        {
            "close_approach_date": "2006-10-13",
            "close_approach_date_full": "2006-Oct-13 23:54",
            "epoch_date_close_approach": 1160783640000,
            "relative_velocity": {
                "kilometers_per_second": "5.4472958427",
                "kilometers_per_hour": "19610.265033868",
                "miles_per_hour": "12185.0560706276"
            },
            "miss_distance": {
                "astronomical": "0.0328519749",
                "lunar": "12.7794182361",
                "kilometers": "4914585.470333463",
                "miles": "3053781.8055212694"
            },
            "orbiting_body": "Earth"
        },
        {
            "close_approach_date": "2026-08-11",
            "close_approach_date_full": "2026-Aug-11 11:00",
            "epoch_date_close_approach": 1786446000000,
            "relative_velocity": {
                "kilometers_per_second": "15.3836129755",
                "kilometers_per_hour": "55381.0067119786",
                "miles_per_hour": "34411.6038650069"
            },
            "miss_distance": {
                "astronomical": "0.4177290391",
                "lunar": "162.4965962099",
                "kilometers": "62491374.486506717",
                "miles": "38830339.5191460146"
            },
            "orbiting_body": "Earth"
        }
    ],
    "orbital_data": {
        "orbit_id": "8",
        "orbit_determination_date": "2017-04-06 09:07:52",
        "first_observation_date": "2006-10-17",
        "last_observation_date": "2006-10-22",
        "data_arc_in_days": 5,
        "observations_used": 36,
        "orbit_uncertainty": "7",
        "minimum_orbit_intersection": ".0327747",
        "jupiter_tisserand_invariant": "4.704",
        "epoch_osculation": "2459000.5",
        "eccentricity": ".2687228561768822",
        "semi_major_axis": "1.401613674070772",
        "inclination": "7.264601559187707",
        "ascending_node_longitude": "204.4897437291301",
        "orbital_period": "606.0952990323556",
        "perihelion_distance": "1.0249680443179",
        "perihelion_argument": "165.4059764498748",
        "aphelion_distance": "1.778259303823643",
        "perihelion_time": "2458867.848085329819",
        "mean_anomaly": "78.79072706471501",
        "mean_motion": ".5939659993647004",
        "equinox": "J2000",
        "orbit_class": {
            "orbit_class_type": "AMO",
            "orbit_class_description": "Near-Earth asteroid orbits similar to that of 1221 Amor",
            "orbit_class_range": "1.017 AU < q (perihelion) < 1.3 AU"
        }
    },
    "is_sentry_object": false
}